ONEWEB-0045             
1 45151U 20008W   25005.80035826 -.00000151  00000+0 -46115-3 0  9998
2 45151  87.8912 126.1416 0001447 107.9732 252.1554 13.11414025241282
ONEWEB-0047             
1 45152U 20008X   25005.82427219  .00001963  00000+0  55853-2 0  9990
2 45152  87.8904 141.3279 0001622 100.1674 259.9636 13.10384680239134
ONEWEB-0048             
1 45153U 20008Y   25005.81925519  .00000669  00000+0  18788-2 0  9994
2 45153  87.8911 141.3489 0001521  99.6199 260.5100 13.10374901238743
ONEWEB-0049             
1 45154U 20008Z   25005.82091987  .00000741  00000+0  20857-2 0  9990
2 45154  87.8914 141.3356 0001928  90.2700 269.8648 13.10373397238967
ONEWEB-0051             
1 45155U 20008AA  25005.79867132  .00000031  00000+0  52103-4 0  9993
2 45155  87.8907 126.1845 0001600 112.5899 247.5398 13.11414094241968
ONEWEB-0052             
1 45156U 20008AB  25005.81759720  .00000723  00000+0  20336-2 0  9999
2 45156  87.8907 141.2924 0001838  85.6416 274.4921 13.10374556238877
ONEWEB-0053             
1 45157U 20008AC  25005.79931675 -.00000056  00000+0 -19576-3 0  9994
2 45157  87.8912 141.3533 0001116  97.2273 262.8981 13.10379126238842
ONEWEB-0054             
1 45158U 20008AD  25005.29968945  .00000172  00000+0  45610-3 0  9995
2 45158  87.8902 141.4290 0001520  97.5589 262.5711 13.10370774238898
